start=new Date('2022-02-21T00:00:00.000Z').valueOf();
sats=[{"EPHEMERIS_TYPE":"0","MEAN_ELEMENT_THEORY":"SGP4","ECCENTRICITY":"0.00036040","EPOCH":"2022-02-20T22:00:00.999936","COUNTRY_CODE":"US","CLASSIFICATION_TYPE":"U","TIME_SYSTEM":"UTC","OBJECT_NAME":"STARLINK-3004","PERIAPSIS":"515.426","APOAPSIS":"520.396","RA_OF_ASC_NODE":"183.5495","RCS_SIZE":"LARGE","ARG_OF_PERICENTER":"198.2526","SEMIMAJOR_AXIS":"6896.046","DECAY_DATE":null,"SITE":"AFETR","MEAN_MOTION_DDOT":"0.0000000000000","CENTER_NAME":"EARTH","MEAN_MOTION_DOT":"-0.00057708","LAUNCH_DATE":"2021-06-30","NORAD_CAT_ID":"48880","OBJECT_TYPE":"PAYLOAD","GP_ID":"196513817","PERIOD":"94.986","INCLINATION":"97.5276","MEAN_ANOMALY":"242.4178","FILE":"3310556","MEAN_MOTION":"15.16011694","TLE_LINE1":"1 48880U 21059B   22051.91667824 -.00057708  00000-0 -30260-2 0  9990","REF_FRAME":"TEME","TLE_LINE2":"2 48880  97.5276 183.5495 0003604 198.2526 242.4178 15.16011694  3608","BSTAR":"-0.00302600000000","ELEMENT_SET_NO":"999","REV_AT_EPOCH":"360","OBJECT_ID":"2021-059B"},{"INCLINATION":"97.5281","MEAN_ANOMALY":"240.3947","FILE":"3310556","TLE_LINE1":"1 48881U 21059C   22051.91667824 -.00020409  00000-0 -10631-2 0  9999","MEAN_MOTION":"15.15988109","REF_FRAME":"TEME","TLE_LINE2":"2 48881  97.5281 183.5624 0004274 192.4358 240.3947 15.15988109  3606","ELEMENT_SET_NO":"999","BSTAR":"-0.00106310000000","OBJECT_ID":"2021-059C","REV_AT_EPOCH":"360","LAUNCH_DATE":"2021-06-30","NORAD_CAT_ID":"48881","OBJECT_TYPE":"PAYLOAD","GP_ID":"196514068","PERIOD":"94.988","RCS_SIZE":"LARGE","RA_OF_ASC_NODE":"183.5624","ARG_OF_PERICENTER":"192.4358","DECAY_DATE":null,"SEMIMAJOR_AXIS":"6896.117","MEAN_MOTION_DDOT":"0.0000000000000","SITE":"AFETR","CENTER_NAME":"EARTH","MEAN_MOTION_DOT":"-0.00020409","EPHEMERIS_TYPE":"0","MEAN_ELEMENT_THEORY":"SGP4","ECCENTRICITY":"0.00042740","EPOCH":"2022-02-20T22:00:00.999936","CLASSIFICATION_TYPE":"U","COUNTRY_CODE":"US","TIME_SYSTEM":"UTC","OBJECT_NAME":"STARLINK-3005","APOAPSIS":"520.930","PERIAPSIS":"515.035"},{"DECAY_DATE":null,"SEMIMAJOR_AXIS":"6737.907","ARG_OF_PERICENTER":"280.2313","RCS_SIZE":"LARGE","RA_OF_ASC_NODE":"37.7318","MEAN_MOTION_DOT":"0.00068504","CENTER_NAME":"EARTH","MEAN_MOTION_DDOT":"0.0000000000000","SITE":"AFWTR","EPOCH":"2022-02-20T22:00:00.999936","MEAN_ELEMENT_THEORY":"SGP4","ECCENTRICITY":"0.00035320","EPHEMERIS_TYPE":"0","APOAPSIS":"362.152","PERIAPSIS":"357.392","TIME_SYSTEM":"UTC","OBJECT_NAME":"STARLINK-3096","COUNTRY_CODE":"US","CLASSIFICATION_TYPE":"U","TLE_LINE1":"1 49131U 21082B   22051.91667824  .00068504  00000-0  57221-3 0  9997","MEAN_MOTION":"15.69694939","FILE":"3310556","MEAN_ANOMALY":"269.6172","INCLINATION":"70.0006","OBJECT_ID":"2021-082B","REV_AT_EPOCH":"368","ELEMENT_SET_NO":"999","BSTAR":"0.00057221000000","TLE_LINE2":"2 49131  70.0006  37.7318 0003532 280.2313 269.6172 15.69694939  3685","REF_FRAME":"TEME","OBJECT_TYPE":"PAYLOAD","NORAD_CAT_ID":"49131","LAUNCH_DATE":"2021-09-14","PERIOD":"91.738","GP_ID":"196514597"},{"RCS_SIZE":"LARGE","RA_OF_ASC_NODE":"60.4394","ARG_OF_PERICENTER":"282.3195","SEMIMAJOR_AXIS":"6950.294","DECAY_DATE":null,"MEAN_MOTION_DDOT":"0.0000000000000","SITE":"AFWTR","CENTER_NAME":"EARTH","MEAN_MOTION_DOT":"0.00061695","EPHEMERIS_TYPE":"0","MEAN_ELEMENT_THEORY":"SGP4","ECCENTRICITY":"0.00033020","EPOCH":"2022-02-20T22:00:00.999936","COUNTRY_CODE":"US","CLASSIFICATION_TYPE":"U","OBJECT_NAME":"STARLINK-3090","TIME_SYSTEM":"UTC","APOAPSIS":"574.454","PERIAPSIS":"569.864","MEAN_ANOMALY":"18.0089","INCLINATION":"70.0001","FILE":"3310556","TLE_LINE1":"1 49132U 21082C   22051.91667824  .00061695  00000-0  51372-2 0  9992","MEAN_MOTION":"14.98297320","REF_FRAME":"TEME","TLE_LINE2":"2 49132  70.0001  60.4394 0003302 282.3195  18.0089 14.98297320  3579","BSTAR":"0.00513720000000","ELEMENT_SET_NO":"999","OBJECT_ID":"2021-082C","REV_AT_EPOCH":"357","LAUNCH_DATE":"2021-09-14","NORAD_CAT_ID":"49132","OBJECT_TYPE":"PAYLOAD","GP_ID":"196514849","PERIOD":"96.109"},{"GP_ID":"196515571","PERIOD":"96.109","LAUNCH_DATE":"2021-09-14","NORAD_CAT_ID":"49133","OBJECT_TYPE":"PAYLOAD","REF_FRAME":"TEME","TLE_LINE2":"2 49133  70.0008  60.4417 0003170 275.3710  50.6223 14.98291325  3572","ELEMENT_SET_NO":"999","BSTAR":"0.00553030000000","OBJECT_ID":"2021-082D","REV_AT_EPOCH":"357","INCLINATION":"70.0008","MEAN_ANOMALY":"50.6223","FILE":"3310556","TLE_LINE1":"1 49133U 21082D   22051.91667824  .00066457  00000-0  55303-2 0  9992","MEAN_MOTION":"14.98291325","CLASSIFICATION_TYPE":"U","COUNTRY_CODE":"US","TIME_SYSTEM":"UTC","OBJECT_NAME":"STARLINK-3077","APOAPSIS":"574.381","PERIAPSIS":"569.974","EPHEMERIS_TYPE":"0","ECCENTRICITY":"0.00031700","MEAN_ELEMENT_THEORY":"SGP4","EPOCH":"2022-02-20T22:00:00.999936","MEAN_MOTION_DDOT":"0.0000000000000","SITE":"AFWTR","CENTER_NAME":"EARTH","MEAN_MOTION_DOT":"0.00066457","RCS_SIZE":"LARGE","RA_OF_ASC_NODE":"60.4417","ARG_OF_PERICENTER":"275.3710","DECAY_DATE":null,"SEMIMAJOR_AXIS":"6950.312"},{"ECCENTRICITY":"0.00031900","MEAN_ELEMENT_THEORY":"SGP4","EPHEMERIS_TYPE":"0","EPOCH":"2022-02-20T22:00:00.999936","OBJECT_NAME":"STARLINK-3078","TIME_SYSTEM":"UTC","CLASSIFICATION_TYPE":"U","COUNTRY_CODE":"US","APOAPSIS":"574.311","PERIAPSIS":"569.877","ARG_OF_PERICENTER":"279.1485","RCS_SIZE":"LARGE","RA_OF_ASC_NODE":"60.4342","SEMIMAJOR_AXIS":"6950.229","DECAY_DATE":null,"MEAN_MOTION_DDOT":"0.0000000000000","SITE":"AFWTR","MEAN_MOTION_DOT":"0.00033630","CENTER_NAME":"EARTH","LAUNCH_DATE":"2021-09-14","OBJECT_TYPE":"PAYLOAD","NORAD_CAT_ID":"49134","GP_ID":"196513846","PERIOD":"96.108","FILE":"3310556","MEAN_ANOMALY":"72.6336","INCLINATION":"69.9995","TLE_LINE1":"1 49134U 21082E   22051.91667824  .00033630  00000-0  28136-2 0  9994","MEAN_MOTION":"14.98318320","TLE_LINE2":"2 49134  69.9995  60.4342 0003190 279.1485  72.6336 14.98318320  3579","REF_FRAME":"TEME","OBJECT_ID":"2021-082E","REV_AT_EPOCH":"357","BSTAR":"0.00281360000000","ELEMENT_SET_NO":"999"},{"OBJECT_ID":"2021-082F","REV_AT_EPOCH":"368","ELEMENT_SET_NO":"999","BSTAR":"0.00057054000000","TLE_LINE2":"2 49135  70.0009  37.7247 0003674 282.6730 273.6425 15.69696292  3689","REF_FRAME":"TEME","TLE_LINE1":"1 49135U 21082F   22051.91667824  .00068307  00000-0  57054-3 0  9996","MEAN_MOTION":"15.69696292","FILE":"3310556","INCLINATION":"70.0009","MEAN_ANOMALY":"273.6425","PERIOD":"91.737","GP_ID":"196514097","OBJECT_TYPE":"PAYLOAD","NORAD_CAT_ID":"49135","LAUNCH_DATE":"2021-09-14","MEAN_MOTION_DOT":"0.00068307","CENTER_NAME":"EARTH","MEAN_MOTION_DDOT":"0.0000000000000","SITE":"AFWTR","DECAY_DATE":null,"SEMIMAJOR_AXIS":"6737.903","ARG_OF_PERICENTER":"282.6730","RCS_SIZE":"LARGE","RA_OF_ASC_NODE":"37.7247","APOAPSIS":"362.243","PERIAPSIS":"357.292","OBJECT_NAME":"STARLINK-3073","TIME_SYSTEM":"UTC","CLASSIFICATION_TYPE":"U","COUNTRY_CODE":"US","EPOCH":"2022-02-20T22:00:00.999936","ECCENTRICITY":"0.00036740","MEAN_ELEMENT_THEORY":"SGP4","EPHEMERIS_TYPE":"0"},{"EPOCH":"2022-02-20T22:00:00.999936","EPHEMERIS_TYPE":"0","ECCENTRICITY":"0.00034550","MEAN_ELEMENT_THEORY":"SGP4","APOAPSIS":"486.517","PERIAPSIS":"481.776","COUNTRY_CODE":"US","CLASSIFICATION_TYPE":"U","OBJECT_NAME":"STARLINK-3084","TIME_SYSTEM":"UTC","DECAY_DATE":null,"SEMIMAJOR_AXIS":"6862.282","RCS_SIZE":"LARGE","RA_OF_ASC_NODE":"40.5200","ARG_OF_PERICENTER":"280.3375","CENTER_NAME":"EARTH","MEAN_MOTION_DOT":"-0.00657801","MEAN_MOTION_DDOT":"0.0000000000000","SITE":"AFWTR","NORAD_CAT_ID":"49136","OBJECT_TYPE":"PAYLOAD","LAUNCH_DATE":"2021-09-14","PERIOD":"94.289","GP_ID":"196515350","TLE_LINE1":"1 49136U 21082G   22051.91667824 -.00657801  00000-0 -26485-1 0  9994","MEAN_MOTION":"15.27214250","MEAN_ANOMALY":"113.2249","INCLINATION":"70.0000","FILE":"3310556","BSTAR":"-0.02648500000000","ELEMENT_SET_NO":"999","OBJECT_ID":"2021-082G","REV_AT_EPOCH":"365","REF_FRAME":"TEME","TLE_LINE2":"2 49136  70.0000  40.5200 0003455 280.3375 113.2249 15.27214250  3653"},{"REF_FRAME":"TEME","TLE_LINE2":"2 49137  69.9999  40.5472 0003269 281.0926 253.4981 15.25216824  3659","BSTAR":"-0.02829700000000","ELEMENT_SET_NO":"999","REV_AT_EPOCH":"365","OBJECT_ID":"2021-082H","MEAN_ANOMALY":"253.4981","INCLINATION":"69.9999","FILE":"3310556","MEAN_MOTION":"15.25216824","TLE_LINE1":"1 49137U 21082H   22051.91667824 -.00661266  00000-0 -28297-1 0  9998","GP_ID":"196515071","PERIOD":"94.413","LAUNCH_DATE":"2021-09-14","NORAD_CAT_ID":"49137","OBJECT_TYPE":"PAYLOAD","SITE":"AFWTR","MEAN_MOTION_DDOT":"0.0000000000000","CENTER_NAME":"EARTH","MEAN_MOTION_DOT":"-0.00661266","RA_OF_ASC_NODE":"40.5472","RCS_SIZE":"LARGE","ARG_OF_PERICENTER":"281.0926","DECAY_DATE":null,"SEMIMAJOR_AXIS":"6868.271","CLASSIFICATION_TYPE":"U","COUNTRY_CODE":"US","TIME_SYSTEM":"UTC","OBJECT_NAME":"STARLINK-3055","PERIAPSIS":"487.891","APOAPSIS":"492.382","EPHEMERIS_TYPE":"0","ECCENTRICITY":"0.00032690","MEAN_ELEMENT_THEORY":"SGP4","EPOCH":"2022-02-20T22:00:00.999936"},{"REV_AT_EPOCH":"358","OBJECT_ID":"2021-082J","ELEMENT_SET_NO":"999","BSTAR":"0.00566890000000","TLE_LINE2":"2 49138  70.0002  60.4389 0003380 271.8139 105.5998 14.98309278  3585","REF_FRAME":"TEME","MEAN_MOTION":"14.98309278","TLE_LINE1":"1 49138U 21082J   22051.91667824  .00068174  00000-0  56689-2 0  9993","FILE":"3310556","MEAN_ANOMALY":"105.5998","INCLINATION":"70.0002","PERIOD":"96.108","GP_ID":"196514347","OBJECT_TYPE":"PAYLOAD","NORAD_CAT_ID":"49138","LAUNCH_DATE":"2021-09-14","MEAN_MOTION_DOT":"0.00068174","CENTER_NAME":"EARTH","SITE":"AFWTR","MEAN_MOTION_DDOT":"0.0000000000000","SEMIMAJOR_AXIS":"6950.257","DECAY_DATE":null,"ARG_OF_PERICENTER":"271.8139","RA_OF_ASC_NODE":"60.4389","RCS_SIZE":"LARGE","PERIAPSIS":"569.773","APOAPSIS":"574.471","TIME_SYSTEM":"UTC","OBJECT_NAME":"STARLINK-3058","CLASSIFICATION_TYPE":"U","COUNTRY_CODE":"US","EPOCH":"2022-02-20T22:00:00.999936","ECCENTRICITY":"0.00033800","MEAN_ELEMENT_THEORY":"SGP4","EPHEMERIS_TYPE":"0"}];
